[{"OBJECT_NAME":"OBJECT B","OBJECT_ID":"2025-284B","EPOCH":"2026-03-09T22:41:21.082560","MEAN_MOTION":13.97295842,"ECCENTRICITY":0.00117879,"INCLINATION":80.3988,"RA_OF_ASC_NODE":32.8503,"ARG_OF_PERICENTER":139.3103,"MEAN_ANOMALY":220.8941,"EPHEMERIS_TYPE":0,"CLASSIFICATION_TYPE":"U","NORAD_CAT_ID":66914,"ELEMENT_SET_NO":999,"REV_AT_EPOCH":1362,"BSTAR":0.00013516882,"MEAN_MOTION_DOT":1.99e-6,"MEAN_MOTION_DDOT":0},{"OBJECT_NAME":"IRAS","OBJECT_ID":"1983-004A","EPOCH":"2026-03-09T12:30:55.777824","MEAN_MOTION":14.00892226,"ECCENTRICITY":0.0018101,"INCLINATION":99.0494,"RA_OF_ASC_NODE":251.076,"ARG_OF_PERICENTER":237.2021,"MEAN_ANOMALY":122.74,"EPHEMERIS_TYPE":0,"CLASSIFICATION_TYPE":"U","NORAD_CAT_ID":13777,"ELEMENT_SET_NO":999,"REV_AT_EPOCH":87242,"BSTAR":4.63866e-7,"MEAN_MOTION_DOT":-4.4e-7,"MEAN_MOTION_DDOT":0}]
